NORAD_CAT_ID,OBJECT_NAME,OBJECT_TYPE,EPOCH,MEAN_MOTION,ECCENTRICITY,INCLINATION,RA_OF_ASC_NODE,ARG_OF_PERICENTER,MEAN_ANOMALY,BSTAR,MEAN_MOTION_DOT,MEAN_MOTION_DDOT,TLE_LINE0,TLE_LINE1,TLE_LINE2,SEMIMAJOR_AXIS,PERIOD,APOGEE,PERIGEE,DECAYED
52621.0,STARLINK-3984,PAYLOAD,2024-07-23 07:05:39,15.08853978,0.0001176,53.2161,57.458,74.2123,285.8999,0.00028631,4.273e-05,0.0,0 STARLINK-3984,1 52621U 22052Z   24205.29559831  .00004273  00000-0  28631-3 0  9991,2 52621  53.2161  57.4580 0001176  74.2123 285.8999 15.08853978121636,6917.838,95.437,540.516,538.889,0.0
52621.0,STARLINK-3984,PAYLOAD,2024-07-23 15:02:35,15.08821385,0.000125,53.2168,55.9754,100.3243,259.789,-0.00031839,-5.349e-05,0.0,0 STARLINK-3984,1 52621U 22052Z   24205.62680327 -.00005349  00000-0 -31839-3 0  9994,2 52621  53.2168  55.9754 0001250 100.3243 259.7890 15.08821385121307,6917.937,95.439,540.667,538.938,0.0
52621.0,STARLINK-3984,PAYLOAD,2024-07-24 00:34:55,15.0882793,0.0001795,53.2171,54.1898,94.3616,265.7582,-5.5262e-05,-1.167e-05,0.0,0 STARLINK-3984,1 52621U 22052Z   24206.02425124 -.00001167  00000-0 -55262-4 0  9992,2 52621  53.2171  54.1898 0001795  94.3616 265.7582 15.08827930121364,6917.917,95.438,541.024,538.541,0.0
52621.0,STARLINK-3984,PAYLOAD,2024-07-24 22:50:19,15.08836535,0.0001632,53.2158,50.0277,95.2612,264.8566,0.00041269,6.285e-05,0.0,0 STARLINK-3984,1 52621U 22052Z   24206.95161176  .00006285  00000-0  41269-3 0  9993,2 52621  53.2158  50.0277 0001632  95.2612 264.8566 15.08836535121881,6917.891,95.438,540.885,538.627,0.0
52621.0,STARLINK-3984,PAYLOAD,2024-07-25 13:08:45,15.08875035,8.26e-05,53.2201,47.3498,128.5642,231.5425,0.00074291,0.00011567,0.0,0 STARLINK-3984,1 52621U 22052Z   24207.54774613  .00011567  00000-0  74291-3 0  9995,2 52621  53.2201  47.3498 0000826 128.5642 231.5425 15.08875035121974,6917.773,95.435,540.21,539.067,0.0
52621.0,STARLINK-3984,PAYLOAD,2024-07-25 21:05:42,15.0882815,0.0001049,53.2183,45.865,87.9326,272.1786,-0.0001233,-2.249e-05,0.0,0 STARLINK-3984,1 52621U 22052Z   24207.87896409 -.00002249  00000-0 -12330-3 0  9994,2 52621  53.2183  45.8650 0001049  87.9326 272.1786 15.08828150121642,6917.917,95.438,540.507,539.056,0.0
52621.0,STARLINK-3984,PAYLOAD,2024-07-25 22:41:05,15.08826994,0.0001059,53.2176,45.568,83.0406,277.0707,-0.00015493,-2.752e-05,0.0,0 STARLINK-3984,1 52621U 22052Z   24207.94520490 -.00002752  00000-0 -15493-3 0  9998,2 52621  53.2176  45.5680 0001059  83.0406 277.0707 15.08826994122036,6917.92,95.438,540.518,539.053,0.0
52621.0,STARLINK-3984,PAYLOAD,2024-07-26 22:31:52,15.08830573,0.0001342,53.217,41.1071,79.0841,281.0302,0.00062762,9.712e-05,0.0,0 STARLINK-3984,1 52621U 22052Z   24208.93880481  .00009712  00000-0  62762-3 0  9999,2 52621  53.2170  41.1071 0001342  79.0841 281.0302 15.08830573121807,6917.909,95.438,540.703,538.846,0.0
52621.0,STARLINK-3984,PAYLOAD,2024-07-27 12:50:21,15.08831788,0.00017,53.2144,38.4334,69.3092,290.8082,0.00044716,6.834e-05,0.0,0 STARLINK-3984,1 52621U 22052Z   24209.53497168  .00006834  00000-0  44716-3 0  9993,2 52621  53.2144  38.4334 0001700  69.3092 290.8082 15.08831788122271,6917.905,95.438,540.947,538.594,0.0
52621.0,STARLINK-3984,PAYLOAD,2024-07-27 20:47:17,15.08827992,0.0001467,53.2165,36.9441,73.163,286.9523,0.00021402,3.119e-05,0.0,0 STARLINK-3984,1 52621U 22052Z   24209.86617485  .00003119  00000-0  21402-3 0  9995,2 52621  53.2165  36.9441 0001467  73.1630 286.9523 15.08827992122321,6917.917,95.438,540.797,538.767,0.0
52621.0,STARLINK-3984,PAYLOAD,2024-07-28 20:38:04,15.08837056,0.0001377,53.2184,32.4813,87.2505,272.8644,0.00017265,2.461e-05,0.0,0 STARLINK-3984,1 52621U 22052Z   24210.85977675  .00002461  00000-0  17265-3 0  9997,2 52621  53.2184  32.4813 0001377  87.2505 272.8644 15.08837056122097,6917.889,95.438,540.707,538.802,0.0
52621.0,STARLINK-3984,PAYLOAD,2024-07-29 04:34:59,15.08853774,0.000113,53.2178,30.996,93.2499,266.8623,0.00017744,2.538e-05,0.0,0 STARLINK-3984,1 52621U 22052Z   24211.19096705  .00002538  00000-0  17744-3 0  9998,2 52621  53.2178  30.9960 0001130  93.2499 266.8623 15.08853774122525,6917.838,95.437,540.485,538.922,0.0
52621.0,STARLINK-3984,PAYLOAD,2024-07-29 10:56:32,15.08844221,0.0001252,53.2173,29.8119,79.4542,280.6591,0.00027442,4.083e-05,0.0,0 STARLINK-3984,1 52621U 22052Z   24211.45593393  .00004083  00000-0  27442-3 0  9995,2 52621  53.2173  29.8119 0001252  79.4542 280.6591 15.08844221122562,6917.867,95.437,540.599,538.866,0.0
52621.0,STARLINK-3984,PAYLOAD,2024-07-29 18:53:28,15.08836981,0.0001014,53.2172,28.325,100.5831,259.5275,0.00012924,1.77e-05,0.0,0 STARLINK-3984,1 52621U 22052Z   24211.78713644  .00001770  00000-0  12924-3 0  9993,2 52621  53.2172  28.3250 0001014 100.5831 259.5275 15.08836981122618,6917.89,95.438,540.456,539.053,0.0
52621.0,STARLINK-3984,PAYLOAD,2024-07-30 04:25:46,15.08854983,0.0001255,53.2184,26.5383,91.4469,268.6667,0.00035424,5.357e-05,0.0,0 STARLINK-3984,1 52621U 22052Z   24212.18456831  .00005357  00000-0  35424-3 0  9995,2 52621  53.2184  26.5383 0001255  91.4469 268.6667 15.08854983122674,6917.835,95.437,540.568,538.831,0.0
52621.0,STARLINK-3984,PAYLOAD,2024-07-30 12:22:43,15.08836252,0.0001121,53.2182,25.0515,90.7226,269.3895,4.9861e-05,5.06e-06,0.0,0 STARLINK-3984,1 52621U 22052Z   24212.51577926  .00000506  00000-0  49861-4 0  9993,2 52621  53.2182  25.0515 0001121  90.7226 269.3895 15.08836252122724,6917.892,95.438,540.532,538.981,0.0
52621.0,STARLINK-3984,PAYLOAD,2024-07-30 18:44:15,15.08846122,0.0001491,53.218,23.8633,100.4007,259.7153,0.00016052,2.268e-05,0.0,0 STARLINK-3984,1 52621U 22052Z   24212.78073320  .00002268  00000-0  16052-3 0  9993,2 52621  53.2180  23.8633 0001491 100.4007 259.7153 15.08846122122766,6917.862,95.437,540.758,538.695,0.0
52621.0,STARLINK-3984,PAYLOAD,2024-07-31 04:16:33,15.08857941,0.0001296,53.2183,22.0749,71.8919,288.2215,0.00034727,5.246e-05,0.0,0 STARLINK-3984,1 52621U 22052Z   24213.17816774  .00005246  00000-0  34727-3 0  9993,2 52621  53.2183  22.0749 0001296  71.8919 288.2215 15.08857941122828,6917.826,95.436,540.587,538.794,0.0
52621.0,STARLINK-3984,PAYLOAD,2024-07-31 20:10:25,15.08838954,0.0001516,53.2175,19.1016,78.9585,281.1578,0.00013318,1.832e-05,0.0,0 STARLINK-3984,1 52621U 22052Z   24213.84057827  .00001832  00000-0  13318-3 0  9993,2 52621  53.2175  19.1016 0001516  78.9585 281.1578 15.08838954122923,6917.884,95.438,540.797,538.7,0.0
52621.0,STARLINK-3984,PAYLOAD,2024-08-01 10:28:54,15.08851132,0.0001454,53.2175,16.4288,79.3312,280.7844,0.00075352,0.00011728,0.0,0 STARLINK-3984,1 52621U 22052Z   24214.43673740  .00011728  00000-0  75352-3 0  9998,2 52621  53.2175  16.4288 0001454  79.3312 280.7844 15.08851132122630,6917.846,95.437,540.717,538.706,0.0
52621.0,STARLINK-3984,PAYLOAD,2024-08-01 16:50:26,15.08850676,0.0001419,53.2174,15.2386,76.1249,283.9901,0.00080039,0.00012477,0.0,0 STARLINK-3984,1 52621U 22052Z   24214.70169774  .00012477  00000-0  80039-3 0  9995,2 52621  53.2174  15.2386 0001419  76.1249 283.9901 15.08850676122675,6917.848,95.437,540.694,538.731,0.0
52621.0,STARLINK-3984,PAYLOAD,2024-08-02 03:58:08,15.08866488,0.0001327,53.2169,13.1563,72.7973,287.3164,0.00092769,0.00014518,0.0,0 STARLINK-3984,1 52621U 22052Z   24215.16537060  .00014518  00000-0  92769-3 0  9994,2 52621  53.2169  13.1563 0001327  72.7973 287.3164 15.08866488123125,6917.799,95.436,540.582,538.746,0.0
52621.0,STARLINK-3984,PAYLOAD,2024-08-02 15:05:50,15.08826566,0.0001451,53.217,11.0748,82.4299,277.6858,-0.00033168,-5.561e-05,0.0,0 STARLINK-3984,1 52621U 22052Z   24215.62905987 -.00005561  00000-0 -33168-3 0  9990,2 52621  53.2170  11.0748 0001451  82.4299 277.6858 15.08826566122816,6917.921,95.438,540.79,538.783,0.0
52621.0,STARLINK-3984,PAYLOAD,2024-08-02 16:41:13,15.08826133,0.000127,53.2166,10.777,83.8044,276.3093,-0.000247,-4.215e-05,0.0,0 STARLINK-3984,1 52621U 22052Z   24215.69529994 -.00004215  00000-0 -24700-3 0  9994,2 52621  53.2166  10.7770 0001270  83.8044 276.3093 15.08826133123205,6917.923,95.438,540.666,538.909,0.0
52621.0,STARLINK-3984,PAYLOAD,2024-08-03 03:48:56,15.08842227,0.0001506,53.2165,8.6928,93.6716,266.4448,0.0011679,0.00018349,0.0,0 STARLINK-3984,1 52621U 22052Z   24216.15898291  .00018349  00000-0  11679-2 0  9996,2 52621  53.2165   8.6928 0001506  93.6716 266.4448 15.08842227123275,6917.874,95.437,540.78,538.697,0.0
52621.0,STARLINK-3984,PAYLOAD,2024-08-03 14:56:38,15.08846935,0.0001768,53.2164,6.6123,94.4444,265.675,0.00096099,0.00015042,0.0,0 STARLINK-3984,1 52621U 22052Z   24216.62266524  .00015042  00000-0  96099-3 0  9993,2 52621  53.2164   6.6123 0001768  94.4444 265.6750 15.08846935122968,6917.859,95.437,540.947,538.501,0.0
52621.0,STARLINK-3984,PAYLOAD,2024-08-03 16:32:01,15.08850206,0.0001774,53.2167,6.315,96.7132,263.4062,0.00098947,0.00015499,0.0,0 STARLINK-3984,1 52621U 22052Z   24216.68890439  .00015499  00000-0  98947-3 0  9997,2 52621  53.2167   6.3150 0001774  96.7132 263.4062 15.08850206123356,6917.849,95.437,540.941,538.487,0.0
52621.0,STARLINK-3984,PAYLOAD,2024-08-04 13:12:01,15.08851813,0.0001689,53.2165,2.4492,104.8775,255.2404,0.00038324,5.818e-05,0.0,0 STARLINK-3984,1 52621U 22052Z   24217.55001793  .00005818  00000-0  38324-3 0  9998,2 52621  53.2165   2.4492 0001689 104.8775 255.2404 15.08851813123487,6917.844,95.437,540.878,538.541,0.0
52621.0,STARLINK-3984,PAYLOAD,2024-08-04 14:47:24,15.08852598,0.000163,53.2171,2.152,106.4418,253.6753,0.00044129,6.744e-05,0.0,0 STARLINK-3984,1 52621U 22052Z   24217.61625743  .00006744  00000-0  44129-3 0  9991,2 52621  53.2171   2.1520 0001630 106.4418 253.6753 15.08852598123111,6917.842,95.437,540.834,538.579,0.0
52621.0,STARLINK-3984,PAYLOAD,2024-08-04 16:22:47,15.08860556,0.0001471,53.2181,1.8554,99.7222,260.3936,0.00086994,0.00013592,0.0,0 STARLINK-3984,1 52621U 22052Z   24217.68249619  .00013592  00000-0  86994-3 0  9997,2 52621  53.2181   1.8554 0001471  99.7222 260.3936 15.08860556123127,6917.818,95.436,540.7,538.665,0.0
